QIANFAN-17              
1 60395U 24140S   25338.66082001  .00000108  00000+0  14935-3 0  9991
2 60395  88.9762 300.2698 0013279 225.2374 134.7697 13.50975197 67041
QIANFAN-18              
1 60396U 24140T   25338.71430250  .00000105  00000+0  14437-3 0  9995
2 60396  88.9755 299.7984 0013008 205.5392 154.5118 13.50975203 66444
QIANFAN-19              
1 61552U 24185A   25338.66064500  .00000910  00000+0  46934-3 0  9995
2 61552  88.9823  78.8653 0005915 347.2073  12.8963 14.14283713 68526
QIANFAN-20              
1 61553U 24185B   25338.66195647  .00000969  00000+0  55375-3 0  9996
2 61553  88.9820  79.1809 0006343  31.4495 328.7067 14.08829818 68357
QIANFAN-21              
1 61554U 24185C   25338.66165976  .00001285  00000+0  56890-3 0  9994
2 61554  88.9738  77.9240 0011551  39.8131 320.3906 14.22591214 68821
QIANFAN-22              
1 61555U 24185D   25338.63356756  .00000327  00000+0  27184-3 0  9990
2 61555  88.9804  80.1327 0007180  36.6565 323.5096 13.86298263 67817
QIANFAN-23              
1 61556U 24185E   25338.64742231  .00000900  00000+0  44700-3 0  9999
2 61556  88.9814  78.6804 0007068 358.3123   1.8040 14.16280550 68607
QIANFAN-24              
1 61557U 24185F   25338.67114191  .00001221  00000+0  52779-3 0  9993
2 61557  88.9796  78.0958 0008163 335.8048  24.2759 14.23793275 68870
